{"type": "FeatureCollection", "features": [ {"type": "Feature", "properties": {"norad_id": 42741, "name": "EUTELSAT 172B", "group": "eutelsat", "lat": -0.007130361220527239, "lon": -125.58684498246514, "alt_km": 35786.772757088955, "timestamp": "2025-12-12T22:42:12.221515+00:00", "meta": {"OBJECT_NAME": "EUTELSAT 172B", "OBJECT_ID": "2017-029B", "EPOCH": "2025-12-12T05:01:38.705664", "MEAN_MOTION": 1.00270008, "ECCENTRICITY": 1.125e-05, "INCLINATION": 0.0256, "RA_OF_ASC_NODE": 150.9223, "ARG_OF_PERICENTER": 201.7173, "MEAN_ANOMALY": 335.9201, "EPHEMERIS_TYPE": 0, "CLASSIFICATION_TYPE": "U", "NORAD_CAT_ID": 42741, "ELEMENT_SET_NO": 999, "REV_AT_EPOCH": 3185, "BSTAR": 0, "MEAN_MOTION_DOT": 4e-08, "MEAN_MOTION_DDOT": 0}, "tle": {"line1": "1 42741U 17029B   25346.20947576  .00000004  00000+0  00000+0 0  9999", "line2": "2 42741   0.0256 150.9223 0000112 201.7173 335.9201  1.00270008 31858"}}, "geometry": {"type": "Point", "coordinates": [-125.58684498246514, -0.007130361220527239]}}, {"type": "Feature", "properties": {"norad_id": 44334, "name": "EUTELSAT 7C", "group": "eutelsat", "lat": -0.0467834538639523, "lon": 69.4096016047205, "alt_km": 35799.77341008356, "timestamp": "2025-12-12T22:42:12.221541+00:00", "meta": {"OBJECT_NAME": "EUTELSAT 7C", "OBJECT_ID": "2019-034B", "EPOCH": "2025-12-12T03:14:30.886080", "MEAN_MOTION": 1.00271596, "ECCENTRICITY": 0.00032509, "INCLINATION": 0.072, "RA_OF_ASC_NODE": 178.1084, "ARG_OF_PERICENTER": 65.7254, "MEAN_ANOMALY": 252.8645, "EPHEMERIS_TYPE": 0, "CLASSIFICATION_TYPE": "U", "NORAD_CAT_ID": 44334, "ELEMENT_SET_NO": 999, "REV_AT_EPOCH": 496, "BSTAR": 0, "MEAN_MOTION_DOT": 5.8e-07, "MEAN_MOTION_DDOT": 0}, "tle": {"line1": "1 44334U 19034B   25346.13507970  .00000058  00000+0  00000+0 0  9998", "line2": "2 44334   0.0720 178.1084 0003250  65.7254 252.8645  1.00271596  4969"}}, "geometry": {"type": "Point", "coordinates": [69.4096016047205, -0.0467834538639523]}}, {"type": "Feature", "properties": {"norad_id": 44624, "name": "EUTELSAT 5 WEST B", "group": "eutelsat", "lat": 0.07671907578492045, "lon": 57.44448800017639, "alt_km": 35799.01374984532, "timestamp": "2025-12-12T22:42:12.221557+00:00", "meta": {"OBJECT_NAME": "EUTELSAT 5 WEST B", "OBJECT_ID": "2019-067A", "EPOCH": "2025-12-12T04:53:45.485088", "MEAN_MOTION": 1.00271802, "ECCENTRICITY": 0.00033658, "INCLINATION": 0.0624, "RA_OF_ASC_NODE": 348.0818, "ARG_OF_PERICENTER": 273.8757, "MEAN_ANOMALY": 247.6347, "EPHEMERIS_TYPE": 0, "CLASSIFICATION_TYPE": "U", "NORAD_CAT_ID": 44624, "ELEMENT_SET_NO": 999, "REV_AT_EPOCH": 2256, "BSTAR": 0, "MEAN_MOTION_DOT": -3.3e-07, "MEAN_MOTION_DDOT": 0}, "tle": {"line1": "1 44624U 19067A   25346.20399867 -.00000033  00000+0  00000+0 0  9992", "line2": "2 44624   0.0624 348.0818 0003365 273.8757 247.6347  1.00271802 22561"}}, "geometry": {"type": "Point", "coordinates": [57.44448800017639, 0.07671907578492045]}}, {"type": "Feature", "properties": {"norad_id": 45027, "name": "EUTELSAT KONNECT", "group": "eutelsat", "lat": -0.010411775763408432, "lon": 69.62517765512887, "alt_km": 35791.87520248805, "timestamp": "2025-12-12T22:42:12.221574+00:00", "meta": {"OBJECT_NAME": "EUTELSAT KONNECT", "OBJECT_ID": "2020-005B", "EPOCH": "2025-12-12T01:31:48.222912", "MEAN_MOTION": 1.00270011, "ECCENTRICITY": 0.00015956, "INCLINATION": 0.0715, "RA_OF_ASC_NODE": 96.0285, "ARG_OF_PERICENTER": 191.0796, "MEAN_ANOMALY": 184.048, "EPHEMERIS_TYPE": 0, "CLASSIFICATION_TYPE": "U", "NORAD_CAT_ID": 45027, "ELEMENT_SET_NO": 999, "REV_AT_EPOCH": 2246, "BSTAR": 0, "MEAN_MOTION_DOT": 5.8e-07, "MEAN_MOTION_DDOT": 0}, "tle": {"line1": "1 45027U 20005B   25346.06375258  .00000058  00000+0  00000+0 0  9992", "line2": "2 45027   0.0715  96.0285 0001595 191.0796 184.0480  1.00270011 22467"}}, "geometry": {"type": "Point", "coordinates": [69.62517765512887, -0.010411775763408432]}}, {"type": "Feature", "properties": {"norad_id": 49056, "name": "EUTELSAT QUANTUM", "group": "eutelsat", "lat": 0.030914889133278885, "lon": 110.11962973603804, "alt_km": 35800.61810578293, "timestamp": "2025-12-12T22:42:12.221589+00:00", "meta": {"OBJECT_NAME": "EUTELSAT QUANTUM", "OBJECT_ID": "2021-069B", "EPOCH": "2025-12-12T04:58:38.646336", "MEAN_MOTION": 1.00272439, "ECCENTRICITY": 0.00036458, "INCLINATION": 0.021, "RA_OF_ASC_NODE": 35.8102, "ARG_OF_PERICENTER": 238.2566, "MEAN_ANOMALY": 289.4509, "EPHEMERIS_TYPE": 0, "CLASSIFICATION_TYPE": "U", "NORAD_CAT_ID": 49056, "ELEMENT_SET_NO": 999, "REV_AT_EPOCH": 1605, "BSTAR": 0, "MEAN_MOTION_DOT": 1.35e-06, "MEAN_MOTION_DDOT": 0}, "tle": {"line1": "1 49056U 21069B   25346.20739174  .00000135  00000+0  00000+0 0  9992", "line2": "2 49056   0.0210  35.8102 0003645 238.2566 289.4509  1.00272439 16055"}}, "geometry": {"type": "Point", "coordinates": [110.11962973603804, 0.030914889133278885]}}, {"type": "Feature", "properties": {"norad_id": 53765, "name": "EUTELSAT KONNECT VHTS", "group": "eutelsat", "lat": -0.015378362829488443, "lon": 65.14786847166559, "alt_km": 35796.5587993449, "timestamp": "2025-12-12T22:42:12.221602+00:00", "meta": {"OBJECT_NAME": "EUTELSAT KONNECT VHTS", "OBJECT_ID": "2022-110A", "EPOCH": "2025-12-12T03:13:16.004928", "MEAN_MOTION": 1.00271767, "ECCENTRICITY": 0.00024923, "INCLINATION": 0.0639, "RA_OF_ASC_NODE": 101.3299, "ARG_OF_PERICENTER": 139.4387, "MEAN_ANOMALY": 251.3532, "EPHEMERIS_TYPE": 0, "CLASSIFICATION_TYPE": "U", "NORAD_CAT_ID": 53765, "ELEMENT_SET_NO": 999, "REV_AT_EPOCH": 495, "BSTAR": 0, "MEAN_MOTION_DOT": 2.7e-07, "MEAN_MOTION_DDOT": 0}, "tle": {"line1": "1 53765U 22110A   25346.13421302  .00000027  00000+0  00000+0 0  9995", "line2": "2 53765   0.0639 101.3299 0002492 139.4387 251.3532  1.00271767  4953"}}, "geometry": {"type": "Point", "coordinates": [65.14786847166559, -0.015378362829488443]}}, {"type": "Feature", "properties": {"norad_id": 54048, "name": "EUTELSAT HOTBIRD 13F", "group": "eutelsat", "lat": 0.044201109662074974, "lon": 75.45169666752702, "alt_km": 35784.62024376402, "timestamp": "2025-12-12T22:42:12.221613+00:00", "meta": {"OBJECT_NAME": "EUTELSAT HOTBIRD 13F", "OBJECT_ID": "2022-134A", "EPOCH": "2025-12-11T23:36:58.233312", "MEAN_MOTION": 1.00269374, "ECCENTRICITY": 0.0002241, "INCLINATION": 0.048, "RA_OF_ASC_NODE": 293.1086, "ARG_OF_PERICENTER": 64.7327, "MEAN_ANOMALY": 90.3432, "EPHEMERIS_TYPE": 0, "CLASSIFICATION_TYPE": "U", "NORAD_CAT_ID": 54048, "ELEMENT_SET_NO": 999, "REV_AT_EPOCH": 1150, "BSTAR": 0, "MEAN_MOTION_DOT": 9.6e-07, "MEAN_MOTION_DDOT": 0}, "tle": {"line1": "1 54048U 22134A   25345.98400733  .00000096  00000+0  00000+0 0  9999", "line2": "2 54048   0.0480 293.1086 0002241  64.7327  90.3432  1.00269374 11502"}}, "geometry": {"type": "Point", "coordinates": [75.45169666752702, 0.044201109662074974]}}, {"type": "Feature", "properties": {"norad_id": 54225, "name": "EUTELSAT HOTBIRD 13G", "group": "eutelsat", "lat": 0.0029525619956976036, "lon": 75.39690027697505, "alt_km": 35788.35446160977, "timestamp": "2025-12-12T22:42:12.221626+00:00", "meta": {"OBJECT_NAME": "EUTELSAT HOTBIRD 13G", "OBJECT_ID": "2022-146A", "EPOCH": "2025-12-12T06:41:35.159424", "MEAN_MOTION": 1.00271187, "ECCENTRICITY": 0.00018164, "INCLINATION": 0.0478, "RA_OF_ASC_NODE": 233.9518, "ARG_OF_PERICENTER": 307.8257, "MEAN_ANOMALY": 12.835, "EPHEMERIS_TYPE": 0, "CLASSIFICATION_TYPE": "U", "NORAD_CAT_ID": 54225, "ELEMENT_SET_NO": 999, "REV_AT_EPOCH": 559, "BSTAR": 0, "MEAN_MOTION_DOT": 9.7e-07, "MEAN_MOTION_DDOT": 0}, "tle": {"line1": "1 54225U 22146A   25346.27887916  .00000097  00000+0  00000+0 0  9995", "line2": "2 54225   0.0478 233.9518 0001816 307.8257  12.8350  1.00271187  5593"}}, "geometry": {"type": "Point", "coordinates": [75.39690027697505, 0.0029525619956976036]}}, {"type": "Feature", "properties": {"norad_id": 54259, "name": "EUTELSAT 10B", "group": "eutelsat", "lat": -0.005063423392893778, "lon": 72.3863901895735, "alt_km": 35786.136454311396, "timestamp": "2025-12-12T22:42:12.221637+00:00", "meta": {"OBJECT_NAME": "EUTELSAT 10B", "OBJECT_ID": "2022-157A", "EPOCH": "2025-12-12T03:15:15.814080", "MEAN_MOTION": 1.00269595, "ECCENTRICITY": 6.672e-05, "INCLINATION": 0.0602, "RA_OF_ASC_NODE": 99.4652, "ARG_OF_PERICENTER": 52.9075, "MEAN_ANOMALY": 347.4998, "EPHEMERIS_TYPE": 0, "CLASSIFICATION_TYPE": "U", "NORAD_CAT_ID": 54259, "ELEMENT_SET_NO": 999, "REV_AT_EPOCH": 1115, "BSTAR": 0, "MEAN_MOTION_DOT": 7.7e-07, "MEAN_MOTION_DDOT": 0}, "tle": {"line1": "1 54259U 22157A   25346.13559970  .00000077  00000+0  00000+0 0  9993", "line2": "2 54259   0.0602  99.4652 0000667  52.9075 347.4998  1.00269595 11156"}}, "geometry": {"type": "Point", "coordinates": [72.3863901895735, -0.005063423392893778]}}, {"type": "Feature", "properties": {"norad_id": 59346, "name": "EUTELSAT 36D", "group": "eutelsat", "lat": 0.03374654419690734, "lon": 98.2693994411996, "alt_km": 35787.11394576881, "timestamp": "2025-12-12T22:42:12.221649+00:00", "meta": {"OBJECT_NAME": "EUTELSAT 36D", "OBJECT_ID": "2024-059A", "EPOCH": "2025-12-12T05:05:29.361696", "MEAN_MOTION": 1.00269505, "ECCENTRICITY": 4.441e-05, "INCLINATION": 0.0186, "RA_OF_ASC_NODE": 351.1584, "ARG_OF_PERICENTER": 1.6497, "MEAN_ANOMALY": 200.5666, "EPHEMERIS_TYPE": 0, "CLASSIFICATION_TYPE": "U", "NORAD_CAT_ID": 59346, "ELEMENT_SET_NO": 999, "REV_AT_EPOCH": 627, "BSTAR": 0, "MEAN_MOTION_DOT": 0, "MEAN_MOTION_DDOT": 0}, "tle": {"line1": "1 59346U 24059A   25346.21214539  .00000000  00000+0  00000+0 0  9992", "line2": "2 59346   0.0186 351.1584 0000444   1.6497 200.5666  1.00269505  6278"}}, "geometry": {"type": "Point", "coordinates": [98.2693994411996, 0.03374654419690734]}}]}